OBJECT B                
1 51825U 22019B   25352.92909010  .00030967  00000+0  49842-3 0  9996
2 51825  97.3682  72.7079 0008905  72.4386 287.7840 15.52877817211609
